satname,norad_id,inclination_deg,eccentricity,mean_motion_rev_per_day,perigee_km,apogee_km,l1,l2
STARLINK-1153,45080,53.0548,0.000235,15.06402219,545.5773017183183,548.832212344123,1 45080U 20006AN  25314.75599509  .00001024  00000+0  87661-4 0  9997,2 45080  53.0548  80.5317 0002350  96.5713 263.5544 15.06402219318819
STARLINK-1151,45081,53.0543,0.0001249,15.06387111,546.3860801797473,548.1160421174227,1 45081U 20006AP  25315.07300483 -.00000786  00000+0 -33865-4 0  9998,2 45081  53.0543  79.1846 0001249  87.2762 272.8370 15.06387111318861
STARLINK-1190,45083,53.0363,0.0005379,15.97939167,276.55577336153056,283.71874480945553,1 45083U 20006AR  25315.33336806  .00433141  89248-4  93178-3 0  9998,2 45083  53.0363  21.8205 0005379 345.8255 147.2761 15.97939167  5972
STARLINK-1185,45087,53.0563,0.0001305,15.06414074,546.26467113337,548.0721758489008,1 45087U 20006AV  25314.58459410  .00002537  00000+0  18907-3 0  9997,2 45087  53.0563  61.2996 0001305  73.3600 286.7533 15.06414074319075
STARLINK-1183,45088,53.0558,0.0002288,15.06412115,545.5899162024025,548.7589387116059,1 45088U 20006AW  25315.27018589  .00002801  00000+0  20683-3 0  9991,2 45088  53.0558  58.2247 0002288  79.1609 280.9637 15.06412115319175
STARLINK-1142,45093,53.0333,0.0007521,15.65548265,366.58589333627333,376.738941620044,1 45093U 20006BB  25315.33336806  .00166124  00000+0  15953-2 0  9991,2 45093  53.0333 346.7907 0007521  34.8627   1.4684 15.65548265  5848
STARLINK-1152,45096,53.0476,0.0004216,15.25169097,487.38199126915515,493.1734385567688,1 45096U 20006BE  25315.27692095  .00035481  00000+0  14027-2 0  9994,2 45096  53.0476  39.0252 0004216 233.2885 126.7725 15.25169097319442
STARLINK-1184,45098,53.0595,0.0001464,15.06398424,546.2025164194774,548.2302598915294,1 45098U 20006BG  25315.28494126  .00002668  00000+0  19793-3 0  9999,2 45098  53.0595  58.1601 0001464  93.7654 266.3503 15.06398424319173
STARLINK-1193,45100,53.0537,0.0001353,15.06399489,546.2761242083352,548.1501239519102,1 45100U 20006BJ  25315.01586636  .00001229  00000+0  10136-3 0  9996,2 45100  53.0537  59.3625 0001353  90.8870 269.2274 15.06399489319132
STARLINK-1143,45179,53.0561,0.0008476,15.42024997,434.3544144492398,445.912746737461,1 45179U 20012B   25315.02159010  .00047194  00000+0  10909-2 0  9990,2 45179  53.0561 180.4344 0008476  92.4981 267.6994 15.42024997317502
STARLINK-1202,45183,53.0538,0.0001426,15.06397592,546.2313823645172,548.2064938780686,1 45183U 20012F   25315.14488588  .00002769  00000+0  20469-3 0  9995,2 45183  53.0538 218.7881 0001426  91.3170 268.7983 15.06397592316972
STARLINK-1216,45185,53.0534,0.0001751,15.06396505,546.0096392225023,548.4349000387274,1 45185U 20012H   25315.00482144  .00003584  00000+0  25943-3 0  9992,2 45185  53.0534 219.4160 0001751  83.7502 276.3687 15.06396505316893
STARLINK-1225,45187,53.053,0.000149,15.06404316,546.1664550873002,548.230205015655,1 45187U 20012K   25315.02324302  .00007127  00000+0  49684-3 0  9992,2 45187  53.0530 219.3315 0001490  86.7888 273.3272 15.06404316316945
STARLINK-1230,45189,53.0542,0.0001424,15.06404552,546.2114391010155,548.1837743970182,1 45189U 20012M   25315.15962897  .00004724  00000+0  33581-3 0  9994,2 45189  53.0542 218.7228 0001424  85.8697 274.2455 15.06404552314191
STARLINK-1234,45190,53.0537,0.0004209,15.37539319,450.51301319052345,456.263791274122,1 45190U 20012N   25315.01444350  .00085274  00000+0  22660-2 0  9994,2 45190  53.0537 174.1272 0004209 117.2124 242.9308 15.37539319317488
STARLINK-1269,45197,53.0539,0.0002012,15.06397966,545.8244104782198,548.611173246466,1 45197U 20012V   25315.17068082  .00003327  00000+0  24213-3 0  9998,2 45197  53.0539 218.6761 0002012  97.9494 262.1723 15.06397966316949
STARLINK-1154,45198,53.0524,2.51e-05,15.06478944,546.795796338125,547.143436690274,1 45198U 20012W   25315.09507789  .00021048  00000+0  14247-2 0  9997,2 45198  53.0524 199.0106 0000251 122.8981 237.2032 15.06478944317180
STARLINK-1199,45201,53.0537,0.000173,15.06425871,545.9341966007605,548.3303397675527,1 45201U 20012Z   25314.97347307  .00010750  00000+0  73899-3 0  9993,2 45201  53.0537 199.5585 0001730  80.4501 279.6683 15.06425871317223
STARLINK-1209,45206,53.0522,0.0002877,15.31486533,469.4057981506021,473.34700816277837,1 45206U 20012AE  25315.24520654  .00080390  00000+0  25914-2 0  9998,2 45206  53.0522 174.1059 0002877 125.9444 234.1823 15.31486533316659
STARLINK-1210,45207,53.0236,0.0010425,15.59463429,382.15399003699986,396.26390633897245,1 45207U 20012AF  25315.33336806  .00226278  00000+0  27283-2 0  9991,2 45207  53.0236 133.7870 0010425 101.5737 186.3344 15.59463429  5882
STARLINK-1231,45212,53.0498,0.000744,15.13014399,521.8758345069182,532.1506981031807,1 45212U 20012AL  25315.07781722  .00043191  00000+0  24183-2 0  9996,2 45212  53.0498 196.9627 0007440  81.0372 279.1462 15.13014399317223
STARLINK-1271,45217,53.0522,0.0002063,15.06412019,545.7460298710666,548.6034134874326,1 45217U 20012AR  25315.09144117  .00008400  00000+0  58196-3 0  9990,2 45217  53.0522 199.0308 0002063  69.2474 290.8736 15.06412019317242
STARLINK-1191,45222,53.0545,0.0001352,15.06402404,546.2678839054224,548.140496163207,1 45222U 20012AW  25315.03430254  .00002055  00000+0  15679-3 0  9999,2 45222  53.0545 179.2836 0001352  87.8723 272.2421 15.06402404317514
STARLINK-1212,45223,53.0542,9.12e-05,15.06402224,546.5731505401345,547.8363328738214,1 45223U 20012AX  25315.05281362  .00005570  00000+0  39247-3 0  9998,2 45223  53.0542 179.8548 0000912 104.2374 255.8716 15.06402224317519
STARLINK-1215,45225,53.0543,0.0001094,15.06432991,546.3528250494555,547.8680691908849,1 45225U 20012AZ  25315.00846344  .00010015  00000+0  68966-3 0  9992,2 45225  53.0543 179.3994 0001094 106.8805 253.2304 15.06432991317464
STARLINK-1221,45227,53.0665,0.000312,15.37107852,452.5349162286302,456.7985857692547,1 45227U 20012BB  25314.85443561  .00021539  00000+0  59324-3 0  9991,2 45227  53.0665 110.7104 0003120  19.8141 340.2982 15.37107852318404
STARLINK-1222,45228,53.0549,0.0001252,15.0639908,546.347323614732,548.0814315996859,1 45228U 20012BC  25315.04167228  .00001240  00000+0  10211-3 0  9996,2 45228  53.0549 179.2507 0001252  88.0036 272.1097 15.06399080317409
STARLINK-1226,45229,53.0548,0.00011,15.06392778,546.4719016403842,547.9954831927162,1 45229U 20012BD  25315.07116343  .00001815  00000+0  14075-3 0  9992,2 45229  53.0548 179.1161 0001100  89.8665 270.2450 15.06392778317413
STARLINK-1227,45230,53.0518,0.0001132,15.06392405,546.4508835254064,548.0187877089902,1 45230U 20012BE  25315.00113239  .00002143  00000+0  16277-3 0  9999,2 45230  53.0518 179.4323 0001132  91.5980 268.5139 15.06392405317523
STARLINK-1246,45235,53.0531,0.0001674,15.06392491,546.0752648362222,548.3938792385406,1 45235U 20012BK  25315.14857172  .00002191  00000+0  16596-3 0  9997,2 45235  53.0531 218.7716 0001674  79.7026 280.4151 15.06392491316998
STARLINK-1270,45237,53.0533,0.000156,15.06399091,546.1339890841109,548.2946987034056,1 45237U 20012BM  25315.01955424  .00000418  00000+0  46966-4 0  9999,2 45237  53.0533 179.3498 0001560  93.5277 266.5890 15.06399091317514
STARLINK-1279,45360,53.0518,0.0005623,15.36021228,454.0449503727459,461.73274504107667,1 45360U 20019A   25315.26084496  .00119453  00000+0  33134-2 0  9993,2 45360  53.0518 303.5332 0005623  45.1492 314.9966 15.36021228312354
STARLINK-1301,45361,53.0523,0.000488,15.38589217,446.9479968669166,453.6125321170621,1 45361U 20019B   25315.27142242  .00123027  00000+0  31393-2 0  9996,2 45361  53.0523 313.0179 0004880  36.6419 323.4917 15.38589217312231
STARLINK-1306,45362,53.0451,0.0006871,15.73303323,344.84107691477584,354.0861456748171,1 45362U 20019C   25315.33336806  .00310305  00000+0  21232-2 0  9993,2 45362  53.0451 300.2456 0006871   0.7478 329.8131 15.73303323  5976
STARLINK-1262,45366,53.0549,0.0001607,15.063979,546.1050895957396,548.3308986908569,1 45366U 20019G   25315.26282028 -.00002553  00000+0 -15256-3 0  9990,2 45366  53.0549 338.2539 0001607  83.5082 276.6090 15.06397900311886
STARLINK-1273,45367,53.0546,9.82e-05,15.06403157,546.5218139266335,547.8819504830999,1 45367U 20019H   25315.28492716 -.00001410  00000+0 -75781-4 0  9991,2 45367  53.0546 338.1560 0000982  69.0760 291.0334 15.06403157311888
STARLINK-1276,45368,53.0552,0.0001305,15.06396307,546.3191170106302,548.1266359383908,1 45368U 20019J   25315.25545038  .00002308  00000+0  17379-3 0  9998,2 45368  53.0552 338.2920 0001305  90.1287 269.9852 15.06396307311883
STARLINK-1277,45369,53.0569,0.0002371,15.06394805,545.5854759926315,548.8694838290057,1 45369U 20019K   25315.24815251  .00000035  00000+0  21301-4 0  9991,2 45369  53.0569 338.9508 0002371  95.1329 264.9931 15.06394805311870
STARLINK-1281,45370,53.056,0.000153,15.06401371,546.147778337453,548.2669337103962,1 45370U 20019L   25315.31073121 -.00003753  00000+0 -23315-3 0  9991,2 45370  53.0560 338.0456 0001530  91.0891 269.0273 15.06401371311895
STARLINK-1300,45374,53.055,0.0001574,15.06395821,546.1343141219932,548.3144178800103,1 45374U 20019Q   25315.26650935  .00001591  00000+0  12571-3 0  9991,2 45374  53.0550 338.2398 0001574  81.0097 279.1070 15.06395821311888
STARLINK-1302,45375,53.0549,0.0001285,15.06406572,546.301511076621,548.0813204794758,1 45375U 20019R   25315.28124004 -.00001805  00000+0 -10231-3 0  9998,2 45375  53.0549 338.1750 0001285  91.6249 268.4887 15.06406572311886
STARLINK-1304,45376,53.0575,0.0001867,15.06389183,545.951741918343,548.5376794491112,1 45376U 20019S   25315.29968328  .00000119  00000+0  26873-4 0  9990,2 45376  53.0575 338.0914 0001867  99.5717 260.5483 15.06389183311883
STARLINK-1305,45377,53.0546,0.0003076,15.32716608,465.60543190379394,469.8169977255475,1 45377U 20019T   25315.25714004  .00068543  00000+0  21312-2 0  9993,2 45377  53.0546 334.0484 0003076  42.4487 317.6751 15.32716608311949
